SL-16 R/B               
1 25400U 98043G   26059.25954002  .00000069  00000+0  47835-4 0  9999
2 25400  98.8238  12.5572 0010645  46.2116 313.9942 14.26047314437646
SL-16 R/B               
1 25407U 98045B   26059.10834101 -.00000233  00000+0 -93441-4 0  9998
2 25407  71.0109 201.7215 0006209  23.0622 337.0779 14.16190478425747
ISS (ZARYA)             
1 25544U 98067A   26059.21983326  .00010172  00000+0  19675-3 0  9997
2 25544  51.6325 119.1716 0008306 141.5469 218.6112 15.48355484554863
CZ-4B R/B               
1 25732U 99025C   26059.14246819  .00000055  00000+0  47168-4 0  9990
2 25732  98.6647 103.6494 0037278  14.1560  52.4140 14.18263177386814
OKEAN-O                 
1 25860U 99039A   26059.12125015  .00000727  00000+0  10221-3 0  9994
2 25860  97.9464 119.1091 0001551  73.1368 287.0014 14.80317730432975
SL-16 R/B               
1 25861U 99039B   26059.17766787  .00000626  00000+0  86284-4 0  9998
2 25861  97.9987 118.2876 0013456 290.1989  69.7776 14.81716137435455
DELTA 2 R/B             
1 25876U 99041E   26059.23867284  .00001883  00000+0  34046-3 0  9992
2 25876  51.7654 339.0263 0502329 320.5290  36.0034 14.11801134361691
HELIOS 1B               
1 25977U 99064A   26059.23020523  .00001882  00000+0  21321-3 0  9997
2 25977  98.1707 321.1951 0002481  88.0498 272.1002 14.87651784683853
TERRA                   
1 25994U 99068A   26059.26486948  .00000480  00000+0  10701-3 0  9993
2 25994  97.9614 113.0587 0002061 175.1720 250.1857 14.61003001393700
SL-16 R/B               
1 26070U 00006B   26059.26258446  .00000296  00000+0  17447-3 0  9992
2 26070  71.0015 117.6607 0017387 203.0758 156.9586 14.15822346347224
TITAN 4B R/B            
1 26474U 00047B   26059.28758036  .00004040  00000+0  25594-3 0  9990
2 26474  67.9882  66.9474 0037808  46.6730 313.7560 15.09456302391499
ENVISAT                 
1 27386U 02009A   26059.31405245  .00000138  00000+0  58454-4 0  9994
2 27386  98.3711  13.1355 0001375  85.1903  75.4951 14.39032859257826
