CCSDS_OMM_VERS = 2.0
CREATION_DATE  = 
ORIGINATOR     = 

OBJECT_NAME    = SL-16 R/B
OBJECT_ID      = 1998-043G
CENTER_NAME    = EARTH
REF_FRAME      = TEME
TIME_SYSTEM    = UTC
MEAN_ELEMENT_THEORY = SGP/SGP4

EPOCH          = 2026-02-28T06:13:44.257728
MEAN_MOTION    = 14.26047314
ECCENTRICITY   = .00106455
INCLINATION    = 98.8238
RA_OF_ASC_NODE = 12.5572
ARG_OF_PERICENTER = 46.2116
MEAN_ANOMALY   = 313.9942

EPHEMERIS_TYPE = 0
CLASSIFICATION_TYPE = U
NORAD_CAT_ID   = 25400
ELEMENT_SET_NO = 999
REV_AT_EPOCH   = 43764
BSTAR          = .47835037E-4
MEAN_MOTION_DOT = .69E-6
MEAN_MOTION_DDOT = 0

CCSDS_OMM_VERS = 2.0
CREATION_DATE  = 
ORIGINATOR     = 

OBJECT_NAME    = SL-16 R/B
OBJECT_ID      = 1998-045B
CENTER_NAME    = EARTH
REF_FRAME      = TEME
TIME_SYSTEM    = UTC
MEAN_ELEMENT_THEORY = SGP/SGP4

EPOCH          = 2026-02-28T02:36:00.663264
MEAN_MOTION    = 14.16190478
ECCENTRICITY   = .00062096
INCLINATION    = 71.0109
RA_OF_ASC_NODE = 201.7215
ARG_OF_PERICENTER = 23.0622
MEAN_ANOMALY   = 337.0779

EPHEMERIS_TYPE = 0
CLASSIFICATION_TYPE = U
NORAD_CAT_ID   = 25407
ELEMENT_SET_NO = 999
REV_AT_EPOCH   = 42574
BSTAR          = -.93441003E-4
MEAN_MOTION_DOT = -.233E-5
MEAN_MOTION_DDOT = 0

CCSDS_OMM_VERS = 2.0
CREATION_DATE  = 
ORIGINATOR     = 

OBJECT_NAME    = ISS (ZARYA)
OBJECT_ID      = 1998-067A
CENTER_NAME    = EARTH
REF_FRAME      = TEME
TIME_SYSTEM    = UTC
MEAN_ELEMENT_THEORY = SGP/SGP4

EPOCH          = 2026-02-28T05:16:33.593664
MEAN_MOTION    = 15.48355484
ECCENTRICITY   = .00083063
INCLINATION    = 51.6325
RA_OF_ASC_NODE = 119.1716
ARG_OF_PERICENTER = 141.5469
MEAN_ANOMALY   = 218.6112

EPHEMERIS_TYPE = 0
CLASSIFICATION_TYPE = U
NORAD_CAT_ID   = 25544
ELEMENT_SET_NO = 999
REV_AT_EPOCH   = 55486
BSTAR          = .19674511E-3
MEAN_MOTION_DOT = .10172E-3
MEAN_MOTION_DDOT = 0

CCSDS_OMM_VERS = 2.0
CREATION_DATE  = 
ORIGINATOR     = 

OBJECT_NAME    = CZ-4B R/B
OBJECT_ID      = 1999-025C
CENTER_NAME    = EARTH
REF_FRAME      = TEME
TIME_SYSTEM    = UTC
MEAN_ELEMENT_THEORY = SGP/SGP4

EPOCH          = 2026-02-28T03:25:09.251616
MEAN_MOTION    = 14.18263177
ECCENTRICITY   = .00372787
INCLINATION    = 98.6647
RA_OF_ASC_NODE = 103.6494
ARG_OF_PERICENTER = 14.1560
MEAN_ANOMALY   = 52.4140

EPHEMERIS_TYPE = 0
CLASSIFICATION_TYPE = U
NORAD_CAT_ID   = 25732
ELEMENT_SET_NO = 999
REV_AT_EPOCH   = 38681
BSTAR          = .47168096E-4
MEAN_MOTION_DOT = .55E-6
MEAN_MOTION_DDOT = 0

CCSDS_OMM_VERS = 2.0
CREATION_DATE  = 
ORIGINATOR     = 

OBJECT_NAME    = OKEAN-O
OBJECT_ID      = 1999-039A
CENTER_NAME    = EARTH
REF_FRAME      = TEME
TIME_SYSTEM    = UTC
MEAN_ELEMENT_THEORY = SGP/SGP4

EPOCH          = 2026-02-28T02:54:36.012960
MEAN_MOTION    = 14.80317730
ECCENTRICITY   = .00015512
INCLINATION    = 97.9464
RA_OF_ASC_NODE = 119.1091
ARG_OF_PERICENTER = 73.1368
MEAN_ANOMALY   = 287.0014

EPHEMERIS_TYPE = 0
CLASSIFICATION_TYPE = U
NORAD_CAT_ID   = 25860
ELEMENT_SET_NO = 999
REV_AT_EPOCH   = 43297
BSTAR          = .10220528E-3
MEAN_MOTION_DOT = .727E-5
MEAN_MOTION_DDOT = 0

CCSDS_OMM_VERS = 2.0
CREATION_DATE  = 
ORIGINATOR     = 

OBJECT_NAME    = SL-16 R/B
OBJECT_ID      = 1999-039B
CENTER_NAME    = EARTH
REF_FRAME      = TEME
TIME_SYSTEM    = UTC
MEAN_ELEMENT_THEORY = SGP/SGP4

EPOCH          = 2026-02-28T04:15:50.503968
MEAN_MOTION    = 14.81716137
ECCENTRICITY   = .0013456
INCLINATION    = 97.9987
RA_OF_ASC_NODE = 118.2876
ARG_OF_PERICENTER = 290.1989
MEAN_ANOMALY   = 69.7776

EPHEMERIS_TYPE = 0
CLASSIFICATION_TYPE = U
NORAD_CAT_ID   = 25861
ELEMENT_SET_NO = 999
REV_AT_EPOCH   = 43545
BSTAR          = .86284135E-4
MEAN_MOTION_DOT = .626E-5
MEAN_MOTION_DDOT = 0

CCSDS_OMM_VERS = 2.0
CREATION_DATE  = 
ORIGINATOR     = 

OBJECT_NAME    = DELTA 2 R/B
OBJECT_ID      = 1999-041E
CENTER_NAME    = EARTH
REF_FRAME      = TEME
TIME_SYSTEM    = UTC
MEAN_ELEMENT_THEORY = SGP/SGP4

EPOCH          = 2026-02-28T05:43:41.333376
MEAN_MOTION    = 14.11801134
ECCENTRICITY   = .05023297
INCLINATION    = 51.7654
RA_OF_ASC_NODE = 339.0263
ARG_OF_PERICENTER = 320.5290
MEAN_ANOMALY   = 36.0034

EPHEMERIS_TYPE = 0
CLASSIFICATION_TYPE = U
NORAD_CAT_ID   = 25876
ELEMENT_SET_NO = 999
REV_AT_EPOCH   = 36169
BSTAR          = .34045562E-3
MEAN_MOTION_DOT = .1883E-4
MEAN_MOTION_DDOT = 0

CCSDS_OMM_VERS = 2.0
CREATION_DATE  = 
ORIGINATOR     = 

OBJECT_NAME    = HELIOS 1B
OBJECT_ID      = 1999-064A
CENTER_NAME    = EARTH
REF_FRAME      = TEME
TIME_SYSTEM    = UTC
MEAN_ELEMENT_THEORY = SGP/SGP4

EPOCH          = 2026-02-28T05:31:29.731872
MEAN_MOTION    = 14.87651784
ECCENTRICITY   = .00024819
INCLINATION    = 98.1707
RA_OF_ASC_NODE = 321.1951
ARG_OF_PERICENTER = 88.0498
MEAN_ANOMALY   = 272.1002

EPHEMERIS_TYPE = 0
CLASSIFICATION_TYPE = U
NORAD_CAT_ID   = 25977
ELEMENT_SET_NO = 999
REV_AT_EPOCH   = 68385
BSTAR          = .21320992E-3
MEAN_MOTION_DOT = .1882E-4
MEAN_MOTION_DDOT = 0

CCSDS_OMM_VERS = 2.0
CREATION_DATE  = 
ORIGINATOR     = 

OBJECT_NAME    = TERRA
OBJECT_ID      = 1999-068A
CENTER_NAME    = EARTH
REF_FRAME      = TEME
TIME_SYSTEM    = UTC
MEAN_ELEMENT_THEORY = SGP/SGP4

EPOCH          = 2026-02-28T06:21:24.723072
MEAN_MOTION    = 14.61003001
ECCENTRICITY   = .00020614
INCLINATION    = 97.9614
RA_OF_ASC_NODE = 113.0587
ARG_OF_PERICENTER = 175.1720
MEAN_ANOMALY   = 250.1857

EPHEMERIS_TYPE = 0
CLASSIFICATION_TYPE = U
NORAD_CAT_ID   = 25994
ELEMENT_SET_NO = 999
REV_AT_EPOCH   = 39370
BSTAR          = .10700611E-3
MEAN_MOTION_DOT = .48E-5
MEAN_MOTION_DDOT = 0

CCSDS_OMM_VERS = 2.0
CREATION_DATE  = 
ORIGINATOR     = 

OBJECT_NAME    = SL-16 R/B
OBJECT_ID      = 2000-006B
CENTER_NAME    = EARTH
REF_FRAME      = TEME
TIME_SYSTEM    = UTC
MEAN_ELEMENT_THEORY = SGP/SGP4

EPOCH          = 2026-02-28T06:18:07.297344
MEAN_MOTION    = 14.15822346
ECCENTRICITY   = .00173873
INCLINATION    = 71.0015
RA_OF_ASC_NODE = 117.6607
ARG_OF_PERICENTER = 203.0758
MEAN_ANOMALY   = 156.9586

EPHEMERIS_TYPE = 0
CLASSIFICATION_TYPE = U
NORAD_CAT_ID   = 26070
ELEMENT_SET_NO = 999
REV_AT_EPOCH   = 34722
BSTAR          = .17447429E-3
MEAN_MOTION_DOT = .296E-5
MEAN_MOTION_DDOT = 0

CCSDS_OMM_VERS = 2.0
CREATION_DATE  = 
ORIGINATOR     = 

OBJECT_NAME    = TITAN 4B R/B
OBJECT_ID      = 2000-047B
CENTER_NAME    = EARTH
REF_FRAME      = TEME
TIME_SYSTEM    = UTC
MEAN_ELEMENT_THEORY = SGP/SGP4

EPOCH          = 2026-02-28T06:54:06.943104
MEAN_MOTION    = 15.09456302
ECCENTRICITY   = .00378083
INCLINATION    = 67.9882
RA_OF_ASC_NODE = 66.9474
ARG_OF_PERICENTER = 46.6730
MEAN_ANOMALY   = 313.7560

EPHEMERIS_TYPE = 0
CLASSIFICATION_TYPE = U
NORAD_CAT_ID   = 26474
ELEMENT_SET_NO = 999
REV_AT_EPOCH   = 39149
BSTAR          = .25594107E-3
MEAN_MOTION_DOT = .404E-4
MEAN_MOTION_DDOT = 0

CCSDS_OMM_VERS = 2.0
CREATION_DATE  = 
ORIGINATOR     = 

OBJECT_NAME    = ENVISAT
OBJECT_ID      = 2002-009A
CENTER_NAME    = EARTH
REF_FRAME      = TEME
TIME_SYSTEM    = UTC
MEAN_ELEMENT_THEORY = SGP/SGP4

EPOCH          = 2026-02-28T07:32:14.131680
MEAN_MOTION    = 14.39032859
ECCENTRICITY   = .00013758
INCLINATION    = 98.3711
RA_OF_ASC_NODE = 13.1355
ARG_OF_PERICENTER = 85.1903
MEAN_ANOMALY   = 75.4951

EPHEMERIS_TYPE = 0
CLASSIFICATION_TYPE = U
NORAD_CAT_ID   = 27386
ELEMENT_SET_NO = 999
REV_AT_EPOCH   = 25782
BSTAR          = .5845365E-4
MEAN_MOTION_DOT = .138E-5
MEAN_MOTION_DDOT = 0

